OBJECT_NAME,OBJECT_ID,EPOCH,MEAN_MOTION,ECCENTRICITY,INCLINATION,RA_OF_ASC_NODE,ARG_OF_PERICENTER,MEAN_ANOMALY,EPHEMERIS_TYPE,CLASSIFICATION_TYPE,NORAD_CAT_ID,ELEMENT_SET_NO,REV_AT_EPOCH,BSTAR,MEAN_MOTION_DOT,MEAN_MOTION_DDOT
STARLINK-37818,2026-122E,2026-06-25T14:00:01.999872,15.49132412,.00008708,97.2859,206.2669,96.3945,53.5807,0,U,69333,999,470,.13436919E-2,.73528E-3,0
STARLINK-37868,2026-122F,2026-06-25T14:00:01.999872,15.49192935,.00021025,97.2914,206.3442,83.2372,249.9663,0,U,69334,999,470,.81020142E-3,.4423E-3,0
STARLINK-37877,2026-122G,2026-06-25T14:00:01.999872,15.49132796,.00014413,97.2854,206.2094,95.6947,278.4139,0,U,69335,999,470,.13613114E-2,.74505E-3,0
STARLINK-37791,2026-122H,2026-06-25T14:00:01.999872,15.49136839,.00018037,97.2854,206.2884,103.3397,96.6059,0,U,69336,999,470,.14891169E-2,.81595E-3,0
STARLINK-37765,2026-122J,2026-06-25T14:00:01.999872,15.47459679,.00015939,97.2852,206.4002,78.1238,18.8666,0,U,69337,999,474,-.55721576E-1,-.2527145E-1,0
STARLINK-37788,2026-122K,2026-06-25T14:00:01.999872,15.49129183,.00006008,97.2857,206.2060,104.1662,259.1844,0,U,69338,999,470,.16896974E-2,.92702E-3,0
STARLINK-37743,2026-122L,2026-06-25T14:00:01.999872,15.49130550,.0000951,97.2854,206.2760,103.3584,68.5439,0,U,69339,999,470,.1538395E-2,.84306E-3,0
STARLINK-37780,2026-122M,2026-06-25T14:00:01.999872,15.49145846,.0001506,97.2852,206.3234,95.6514,188.3946,0,U,69340,999,474,.10319001E-2,.5635E-3,0
STARLINK-37781,2026-122N,2026-06-25T14:00:01.999872,15.49128075,.00008351,97.2858,206.2025,101.8150,255.0326,0,U,69341,999,470,.16924304E-2,.9285E-3,0
STARLINK-37782,2026-122P,2026-06-25T14:00:01.999872,15.49138199,.00013755,97.2851,206.3745,82.1143,317.2103,0,U,69342,999,470,.10664418E-2,.58237E-3,0
STARLINK-37776,2026-122Q,2026-06-25T14:00:01.999872,15.49251958,.00006667,97.2852,206.3665,120.4742,261.3084,0,U,69343,999,470,-.1483385E-2,-.80126E-3,0
STARLINK-37786,2026-122R,2026-06-25T14:00:01.999872,15.49147742,.00010784,97.2850,206.2918,89.8627,116.8343,0,U,69344,999,470,.1043354E-2,.56984E-3,0
STARLINK-37785,2026-122S,2026-06-25T14:00:01.999872,15.49131790,.0000903,97.2852,206.3713,78.9073,313.2148,0,U,69345,999,470,.14133052E-2,.77379E-3,0
STARLINK-37773,2026-122T,2026-06-25T14:00:01.999872,15.49134413,.00015403,97.2850,206.3223,110.3088,168.8521,0,U,69346,999,475,.12086984E-2,.66075E-3,0
STARLINK-37744,2026-122U,2026-06-25T14:00:01.999872,15.49124092,.00005349,97.2854,206.2133,101.3931,278.1333,0,U,69347,999,470,.15795082E-2,.86567E-3,0
STARLINK-37775,2026-122V,2026-06-25T14:00:01.999872,15.49130765,.00015405,97.2854,206.3242,96.5857,184.4680,0,U,69348,999,470,.16197436E-2,.88822E-3,0
STARLINK-37777,2026-122W,2026-06-25T14:00:01.999872,15.49143675,.00010596,97.2852,206.3255,93.1166,193.4312,0,U,69349,999,470,.12435166E-2,.68019E-3,0
STARLINK-37779,2026-122X,2026-06-25T14:00:01.999872,15.49150690,.00013308,97.2852,206.3613,93.9655,276.7835,0,U,69350,999,470,.10617073E-2,.58002E-3,0
STARLINK-37549,2026-122Y,2026-06-25T14:00:01.999872,15.49137597,.00016367,97.2857,206.2667,96.3749,50.2366,0,U,69351,999,470,.134145E-2,.73419E-3,0
STARLINK-37778,2026-122Z,2026-06-25T14:00:01.999872,15.49138551,.00012823,97.2856,206.2869,97.7541,93.1733,0,U,69352,999,470,.176062E-2,.96678E-3,0
STARLINK-37651,2026-123A,2026-06-25T12:24:34.822080,15.81030947,.00011526,53.1565,200.0602,179.5430,180.5594,0,U,69353,999,335,.1973186E-2,.410838E-2,0
STARLINK-37652,2026-123B,2026-06-25T12:26:13.436448,15.80973956,.00010215,53.1566,200.0684,113.2631,246.8499,0,U,69354,999,335,.11689076E-2,.237568E-2,0
STARLINK-37593,2026-123C,2026-06-25T12:24:58.483584,15.80944411,.00015382,53.1566,200.0613,103.1741,256.9454,0,U,69355,999,335,.83746539E-3,.168407E-2,0
STARLINK-37597,2026-123D,2026-06-24T09:05:54.799872,15.79381939,.00023389,53.1569,205.7629,75.8290,284.2992,0,U,69356,999,317,.17617196E-2,.337164E-2,0
STARLINK-37598,2026-123E,2026-06-25T12:19:36.130368,15.80961969,.00015167,53.1569,200.0362,154.7147,205.3951,0,U,69357,999,335,.10161912E-2,.205552E-2,0
STARLINK-37602,2026-123F,2026-06-25T11:39:30.497760,15.75281733,.00009998,53.1586,200.5900,89.7658,270.3477,0,U,69358,999,334,.77746735E-3,.120472E-2,0
STARLINK-37600,2026-123G,2026-06-25T11:33:26.224128,15.75301118,.00011886,53.1577,200.5613,85.1159,274.9997,0,U,69359,999,334,.11526719E-2,.180356E-2,0
STARLINK-37599,2026-123H,2026-06-25T13:35:42.209664,15.80968031,.00009821,53.1563,199.6494,121.9911,238.1207,0,U,69360,999,336,.96693576E-3,.195377E-2,0
STARLINK-37039,2026-123J,2026-06-25T14:00:01.999872,15.75250519,.00011133,53.1591,199.7881,84.3895,263.9616,0,U,69361,999,450,-.50987359E-3,-.78118E-3,0
STARLINK-37040,2026-123K,2026-06-25T10:12:57.650400,15.81017994,.00011019,53.1572,200.1861,131.5841,228.5276,0,U,69362,999,334,.12907737E-2,.26375E-2,0
