[
  {
    "name": "STARLINK-37818",
    "noradId": "69333",
    "line1": "1 69333U 26122E   26176.58335648  .00073528  00000+0  13437-2 0  9995",
    "line2": "2 69333  97.2859 206.2669 0000870  96.3945  53.5807 15.49132412  4709"
  },
  {
    "name": "STARLINK-37868",
    "noradId": "69334",
    "line1": "1 69334U 26122F   26176.58335648  .00044230  00000+0  81020-3 0  9998",
    "line2": "2 69334  97.2914 206.3442 0002102  83.2372 249.9663 15.49192935  4708"
  },
  {
    "name": "STARLINK-37877",
    "noradId": "69335",
    "line1": "1 69335U 26122G   26176.58335648  .00074505  00000+0  13613-2 0  9999",
    "line2": "2 69335  97.2854 206.2094 0001441  95.6947 278.4139 15.49132796  4708"
  },
  {
    "name": "STARLINK-37791",
    "noradId": "69336",
    "line1": "1 69336U 26122H   26176.58335648  .00081595  00000+0  14891-2 0  9996",
    "line2": "2 69336  97.2854 206.2884 0001803 103.3397  96.6059 15.49136839  4707"
  },
  {
    "name": "STARLINK-37765",
    "noradId": "69337",
    "line1": "1 69337U 26122J   26176.58335648 -.02527145  00000+0 -55722-1 0  9994",
    "line2": "2 69337  97.2852 206.4002 0001593  78.1238  18.8666 15.47459679  4741"
  },
  {
    "name": "STARLINK-37788",
    "noradId": "69338",
    "line1": "1 69338U 26122K   26176.58335648  .00092702  00000+0  16897-2 0  9998",
    "line2": "2 69338  97.2857 206.2060 0000600 104.1662 259.1844 15.49129183  4708"
  },
  {
    "name": "STARLINK-37743",
    "noradId": "69339",
    "line1": "1 69339U 26122L   26176.58335648  .00084306  00000+0  15384-2 0  9990",
    "line2": "2 69339  97.2854 206.2760 0000951 103.3584  68.5439 15.49130550  4708"
  },
  {
    "name": "STARLINK-37780",
    "noradId": "69340",
    "line1": "1 69340U 26122M   26176.58335648  .00056350  00000+0  10319-2 0  9993",
    "line2": "2 69340  97.2852 206.3234 0001506  95.6514 188.3946 15.49145846  4740"
  },
  {
    "name": "STARLINK-37781",
    "noradId": "69341",
    "line1": "1 69341U 26122N   26176.58335648  .00092850  00000+0  16924-2 0  9997",
    "line2": "2 69341  97.2858 206.2025 0000835 101.8150 255.0326 15.49128075  4709"
  },
  {
    "name": "STARLINK-37782",
    "noradId": "69342",
    "line1": "1 69342U 26122P   26176.58335648  .00058237  00000+0  10664-2 0  9994",
    "line2": "2 69342  97.2851 206.3745 0001375  82.1143 317.2103 15.49138199  4708"
  },
  {
    "name": "STARLINK-37776",
    "noradId": "69343",
    "line1": "1 69343U 26122Q   26176.58335648 -.00080126  00000+0 -14834-2 0  9992",
    "line2": "2 69343  97.2852 206.3665 0000666 120.4742 261.3084 15.49251958  4700"
  },
  {
    "name": "STARLINK-37786",
    "noradId": "69344",
    "line1": "1 69344U 26122R   26176.58335648  .00056984  00000+0  10434-2 0  9998",
    "line2": "2 69344  97.2850 206.2918 0001078  89.8627 116.8343 15.49147742  4704"
  },
  {
    "name": "STARLINK-37785",
    "noradId": "69345",
    "line1": "1 69345U 26122S   26176.58335648  .00077379  00000+0  14133-2 0  9990",
    "line2": "2 69345  97.2852 206.3713 0000903  78.9073 313.2148 15.49131790  4703"
  },
  {
    "name": "STARLINK-37773",
    "noradId": "69346",
    "line1": "1 69346U 26122T   26176.58335648  .00066075  00000+0  12087-2 0  9998",
    "line2": "2 69346  97.2850 206.3223 0001540 110.3088 168.8521 15.49134413  4752"
  },
  {
    "name": "STARLINK-37744",
    "noradId": "69347",
    "line1": "1 69347U 26122U   26176.58335648  .00086567  00000+0  15795-2 0  9996",
    "line2": "2 69347  97.2854 206.2133 0000534 101.3931 278.1333 15.49124092  4708"
  },
  {
    "name": "STARLINK-37775",
    "noradId": "69348",
    "line1": "1 69348U 26122V   26176.58335648  .00088822  00000+0  16197-2 0  9990",
    "line2": "2 69348  97.2854 206.3242 0001540  96.5857 184.4680 15.49130765  4709"
  },
  {
    "name": "STARLINK-37777",
    "noradId": "69349",
    "line1": "1 69349U 26122W   26176.58335648  .00068019  00000+0  12435-2 0  9998",
    "line2": "2 69349  97.2852 206.3255 0001059  93.1166 193.4312 15.49143675  4709"
  },
  {
    "name": "STARLINK-37779",
    "noradId": "69350",
    "line1": "1 69350U 26122X   26176.58335648  .00058002  00000+0  10617-2 0  9991",
    "line2": "2 69350  97.2852 206.3613 0001330  93.9655 276.7835 15.49150690  4702"
  },
  {
    "name": "STARLINK-37549",
    "noradId": "69351",
    "line1": "1 69351U 26122Y   26176.58335648  .00073419  00000+0  13415-2 0  9990",
    "line2": "2 69351  97.2857 206.2667 0001636  96.3749  50.2366 15.49137597  4701"
  },
  {
    "name": "STARLINK-37778",
    "noradId": "69352",
    "line1": "1 69352U 26122Z   26176.58335648  .00096678  00000+0  17606-2 0  9999",
    "line2": "2 69352  97.2856 206.2869 0001282  97.7541  93.1733 15.49138551  4702"
  },
  {
    "name": "STARLINK-37651",
    "noradId": "69353",
    "line1": "1 69353U 26123A   26176.51706970  .00410838  00000+0  19732-2 0  9994",
    "line2": "2 69353  53.1565 200.0602 0001152 179.5430 180.5594 15.81030947  3352"
  },
  {
    "name": "STARLINK-37652",
    "noradId": "69354",
    "line1": "1 69354U 26123B   26176.51821107  .00237568  00000+0  11689-2 0  9995",
    "line2": "2 69354  53.1566 200.0684 0001021 113.2631 246.8499 15.80973956  3352"
  },
  {
    "name": "STARLINK-37593",
    "noradId": "69355",
    "line1": "1 69355U 26123C   26176.51734356  .00168407  00000+0  83747-3 0  9995",
    "line2": "2 69355  53.1566 200.0613 0001538 103.1741 256.9454 15.80944411  3355"
  },
  {
    "name": "STARLINK-37597",
    "noradId": "69356",
    "line1": "1 69356U 26123D   26175.37910648  .00337164  00000+0  17617-2 0  9999",
    "line2": "2 69356  53.1569 205.7629 0002338  75.8290 284.2992 15.79381939  3170"
  },
  {
    "name": "STARLINK-37598",
    "noradId": "69357",
    "line1": "1 69357U 26123E   26176.51361262  .00205552  00000+0  10162-2 0  9992",
    "line2": "2 69357  53.1569 200.0362 0001516 154.7147 205.3951 15.80961969  3356"
  },
  {
    "name": "STARLINK-37602",
    "noradId": "69358",
    "line1": "1 69358U 26123F   26176.48576965  .00120472  00000+0  77747-3 0  9997",
    "line2": "2 69358  53.1586 200.5900 0000999  89.7658 270.3477 15.75281733  3349"
  },
  {
    "name": "STARLINK-37600",
    "noradId": "69359",
    "line1": "1 69359U 26123G   26176.48155352  .00180356  00000+0  11527-2 0  9991",
    "line2": "2 69359  53.1577 200.5613 0001188  85.1159 274.9997 15.75301118  3345"
  },
  {
    "name": "STARLINK-37599",
    "noradId": "69360",
    "line1": "1 69360U 26123H   26176.56646076  .00195377  00000+0  96694-3 0  9998",
    "line2": "2 69360  53.1563 199.6494 0000982 121.9911 238.1207 15.80968031  3360"
  },
  {
    "name": "STARLINK-37039",
    "noradId": "69361",
    "line1": "1 69361U 26123J   26176.58335648 -.00078118  00000+0 -50987-3 0  9991",
    "line2": "2 69361  53.1591 199.7881 0001113  84.3895 263.9616 15.75250519  4509"
  },
  {
    "name": "STARLINK-37040",
    "noradId": "69362",
    "line1": "1 69362U 26123K   26176.42566725  .00263750  00000+0  12908-2 0  9993",
    "line2": "2 69362  53.1572 200.1861 0001101 131.5841 228.5276 15.81017994  3342"
  }
]